     2.100          NAVIGATION                              RINEX VERSION / TYPE
fic2rin                                 03/17/2014 00:16:05 PGM / RUN BY / DATE
                                                            END OF HEADER
14 14  3 16  2  0  0.0  .190148595721D-03 -.329691829393D-11  .000000000000D+00
     .600000000000D+02 -.323125000000D+02  .469948146655D-08  .157543851989D+01
    -.164285302162D-05  .728900323156D-02  .364705920219D-05  .515362590981D+04
     .720000000000D+04 -.208616256714D-06  .172365404022D+01 -.106170773506D-06
     .970482095423D+00  .311562500000D+03 -.199476860180D+01 -.838856370306D-08
    -.907180644858D-10  .100000000000D+01  .178400000000D+04  .000000000000D+00
     .240000000000D+01  .000000000000D+00 -.884756445885D-08  .600000000000D+02
     .600000000000D+01  .400000000000D+01
15 14  3 16  2  0  0.0 -.168437603861D-03 -.216004991671D-11  .000000000000D+00
     .860000000000D+02 -.121875000000D+02  .546058459812D-08  .987913090568D+00
    -.610947608948D-06  .623384350911D-02  .277347862720D-05  .515365542984D+04
     .720000000000D+04  .745058059692D-08  .161397713637D+01  .745058059692D-07
     .937067940527D+00  .312593750000D+03  .266046357967D+00 -.877715131787D-08
    -.764317551180D-10  .100000000000D+01  .178400000000D+04  .000000000000D+00
     .240000000000D+01  .000000000000D+00 -.102445483208D-07  .860000000000D+02
     .600000000000D+01  .400000000000D+01
16 14  3 16  2  0  0.0 -.227570068091D-03  .159161572810D-11  .000000000000D+00
     .390000000000D+02  .925937500000D+02  .408909889881D-08  .261426455797D+01
     .479631125927D-05  .763560773339D-02  .916607677937D-05  .515355379677D+04
     .720000000000D+04 -.150874257088D-06 -.248329316841D+01  .558793544769D-08
     .987621522218D+00  .217937500000D+03  .156921638405D+00 -.776710924556D-08
     .536450916763D-09  .100000000000D+01  .178400000000D+04  .000000000000D+00
     .240000000000D+01  .000000000000D+00 -.977888703346D-08  .390000000000D+02
     .600000000000D+01  .400000000000D+01
17 14  3 16  2  0  0.0 -.766823068261D-04 -.318323145621D-11  .000000000000D+00
     .720000000000D+02 -.256250000000D+02  .486877423256D-08  .163453893420D+01
    -.151805579662D-05  .926071847789D-02  .315718352795D-05  .515355480385D+04
     .720000000000D+04 -.188127160072D-06 -.145005175133D+01 -.745058059692D-07
     .967602326555D+00  .326718750000D+03 -.211355618347D+01 -.846642408912D-08
    -.260725145963D-09  .100000000000D+01  .178400000000D+04  .000000000000D+00
     .240000000000D+01  .000000000000D+00 -.102445483208D-07  .720000000000D+02
     .600000000000D+01  .400000000000D+01
18 14  3 16  2  0  0.0  .307478941977D-03  .216004991671D-11  .000000000000D+00
     .880000000000D+02  .828437500000D+02  .498413618071D-08 -.300012293672D+01
     .417977571487D-05  .148798187729D-01  .895187258720D-05  .515368133736D+04
     .720000000000D+04  .819563865662D-07  .594479798081D+00 -.763684511185D-07
     .926353769896D+00  .186500000000D+03 -.205420863986D+01 -.807426489697D-08
     .550022910662D-09  .100000000000D+01  .178400000000D+04  .000000000000D+00
     .240000000000D+01  .000000000000D+00 -.107102096081D-07  .880000000000D+02
     .600000000000D+01  .400000000000D+01
20 14  3 16  2  0  0.0  .170415733010D-03  .352429196937D-11  .000000000000D+00
     .320000000000D+02  .772812500000D+02  .502770942428D-08 -.246752720810D+01
     .404007732868D-05  .590894010384D-02  .989995896816D-05  .515356093025D+04
     .720000000000D+04  .707805156708D-07  .541339881093D+00 -.633299350739D-07
     .927353921636D+00  .170312500000D+03  .131286373382D+01 -.823570019283D-08
     .497877881469D-09  .100000000000D+01  .178400000000D+04  .000000000000D+00
     .240000000000D+01  .000000000000D+00 -.791624188423D-08  .320000000000D+02
     .600000000000D+01  .400000000000D+01
21 14  3 16  2  0  0.0 -.349595677108D-03 -.227373675443D-11  .000000000000D+00
     .520000000000D+02 -.568437500000D+02  .477019869792D-08 -.198473333634D+01
    -.312179327011D-05  .212394739501D-01  .103358179331D-04  .515379027557D+04
     .720000000000D+04  .309199094772D-06 -.450623677073D+00 -.113621354103D-06
     .932576899057D+00  .158875000000D+03 -.205145127774D+01 -.784282668521D-08
    -.270368404786D-09  .100000000000D+01  .178400000000D+04  .000000000000D+00
     .240000000000D+01  .000000000000D+00 -.111758708954D-07  .520000000000D+02
     .600000000000D+01  .400000000000D+01
22 14  3 16  2  0  0.0  .219857320189D-03  .261479726760D-11  .000000000000D+00
     .420000000000D+02  .864375000000D+02  .513914263735D-08  .273551112353D+01
     .442005693913D-05  .688982906286D-02  .907666981220D-05  .515373445892D+04
     .720000000000D+04  .106170773506D-06  .596502825068D+00 -.372529029846D-08
     .924120774665D+00  .185187500000D+03 -.206451719598D+01 -.828570227561D-08
     .558237538548D-09  .100000000000D+01  .178400000000D+04  .000000000000D+00
     .240000000000D+01  .000000000000D+00 -.172294676304D-07  .420000000000D+02
     .600000000000D+01  .400000000000D+01
23 14  3 16  2  0  0.0 -.420073047280D-05 -.318323145621D-11  .000000000000D+00
     .105000000000D+03 -.186250000000D+02  .518093009225D-08  .543880700620D+00
    -.918284058571D-06  .899629003834D-02  .298582017422D-05  .515357146263D+04
     .720000000000D+04  .558793544769D-07  .165958671181D+01  .212341547012D-06
     .952110922327D+00  .317343750000D+03 -.280245025230D+01 -.867786146776D-08
    -.764317551180D-10  .100000000000D+01  .178400000000D+04  .000000000000D+00
     .240000000000D+01  .000000000000D+00 -.200234353542D-07  .105000000000D+03
     .600000000000D+01  .400000000000D+01
24 14  3 16  2  0  0.0 -.249990262091D-04 -.682121026330D-12  .000000000000D+00
     .860000000000D+02 -.525625000000D+02  .449197282298D-08 -.154982724818D+00
    -.270456075668D-05  .198499078397D-02  .106934458017D-04  .515362218475D+04
     .720000000000D+04  .931322574615D-08  .268659808743D+01  .186264514923D-07
     .957497752425D+00  .173656250000D+03  .251276061171D+00 -.801497671309D-08
    -.286440502825D-09  .100000000000D+01  .178400000000D+04  .000000000000D+00
     .340000000000D+01  .000000000000D+00  .325962901115D-08  .860000000000D+02
     .600000000000D+01  .400000000000D+01
27 14  3 16  2  0  0.0 -.203773379326D-04 -.227373675443D-12  .000000000000D+00
     .280000000000D+02 -.233437500000D+02  .507806866480D-08  .183470578423D+01
    -.104866921902D-05  .946772634052D-03  .273622572422D-05  .515366737556D+04
     .720000000000D+04  .260770320892D-07 -.149516640695D+01  .819563865662D-07
     .962300535886D+00  .326625000000D+03  .374927427061D-01 -.858285751047D-08
    -.202151277555D-09  .100000000000D+01  .178400000000D+04  .000000000000D+00
     .240000000000D+01  .000000000000D+00  .186264514923D-08  .280000000000D+02
     .600000000000D+01  .400000000000D+01
28 14  3 16  2  0  0.0  .339875463396D-03  .284217094304D-11  .000000000000D+00
     .280000000000D+02  .813750000000D+02  .398838041777D-08  .251483221050D+01
     .409223139286D-05  .192054943182D-01  .855326652527D-05  .515366502762D+04
     .720000000000D+04  .158324837685D-06 -.247743331838D+01 -.234693288803D-06
     .986125931326D+00  .221781250000D+03 -.171905365586D+01 -.749709799851D-08
     .377515725045D-09  .100000000000D+01  .178400000000D+04  .000000000000D+00
     .240000000000D+01  .000000000000D+00 -.107102096081D-07  .280000000000D+02
     .600000000000D+01  .400000000000D+01
29 14  3 16  2  0  0.0  .518364831805D-03  .284217094304D-11  .000000000000D+00
     .450000000000D+02 -.314062500000D+02  .479627121252D-08 -.174560838830D+01
    -.173039734364D-05  .167811184656D-02  .303238630295D-05  .515373401451D+04
     .720000000000D+04 -.102445483208D-06 -.144104845754D+01 -.149011611938D-07
     .968319741581D+00  .321625000000D+03 -.963340379519D+00 -.840034990829D-08
    -.290726395636D-09  .100000000000D+01  .178400000000D+04  .000000000000D+00
     .240000000000D+01  .000000000000D+00 -.931322574615D-08  .450000000000D+02
     .600000000000D+01  .400000000000D+01
31 14  3 16  2  0  0.0  .333842821419D-03  .227373675443D-12  .000000000000D+00
     .250000000000D+02 -.443750000000D+02  .399980946526D-08 -.120671325983D+01
    -.263378024101D-05  .814438913949D-02  .124275684357D-04  .515379790306D+04
     .720000000000D+04 -.428408384323D-07  .272583856813D+01 -.126659870148D-06
     .979088901840D+00  .151562500000D+03 -.639836960166D+00 -.782925469131D-08
    -.211437378644D-09  .100000000000D+01  .178400000000D+04  .000000000000D+00
     .240000000000D+01  .000000000000D+00 -.130385160446D-07  .250000000000D+02
     .600000000000D+01  .400000000000D+01
32 14  3 16  2  0  0.0 -.468416605145D-03  .716227077646D-11  .000000000000D+00
     .790000000000D+02  .792500000000D+02  .485055918812D-08 -.501271903713D+00
     .408664345741D-05  .114686560119D-01  .824034214020D-05  .515349051857D+04
     .720000000000D+04  .236555933952D-06  .687020133672D+00 -.189989805222D-06
     .948192294369D+00  .214718750000D+03 -.172444050644D+00 -.838820654533D-08
     .532879339421D-09  .100000000000D+01  .178400000000D+04  .000000000000D+00
     .240000000000D+01  .000000000000D+00 -.325962901115D-08  .790000000000D+02
     .600000000000D+01  .400000000000D+01
 8 14  3 16  1 59 44.0  .123376958072D-04  .227373675443D-12  .000000000000D+00
     .150000000000D+02 -.380000000000D+02  .350193158379D-08 -.168156013635D+01
    -.226125121117D-05  .135425708722D-01  .123251229525D-04  .515349385071D+04
     .718400000000D+04  .856816768646D-07  .281774687337D+01 -.158324837685D-06
     .997365685998D+00  .158031250000D+03 -.278542481754D+01 -.739995109481D-08
    -.342871424828D-10  .100000000000D+01  .178400000000D+04  .000000000000D+00
     .240000000000D+01  .000000000000D+00 -.419095158577D-08  .150000000000D+02
     .132600000000D+04  .400000000000D+01
